CAS-2T & KS-1Q          
1 41847U 16066G   20255.69111930 -.00000002  00000-0  10698-4 0  9998
2 41847  98.6459 307.0350 0365090 332.0992  26.1030 14.38089671201817
NAYIF-1 (EO-88)         
1 42017U 17008BX  20255.48142072  .00001144  00000-0  46288-4 0  9994
2 42017  97.3530 321.7674 0006839  32.4745 327.6913 15.26718110198678
MAX VALIER SAT          
1 42778U 17036P   20255.69270498  .00000661  00000-0  31203-4 0  9990
2 42778  97.2971 306.9113 0013908  81.0310 279.2501 15.22755630178853
RADFXSAT (FOX-1B)       
1 43017U 17073E   20255.98902377  .00000276  00000-0  26451-4 0  9999
2 43017  97.7162 164.8707 0257848 128.1732 234.3016 14.79010190151952
FOX-1D (AO-92)          
1 43137U 18004AC  20255.94587002  .00000739  00000-0  33161-4 0  9997
2 43137  97.4394 326.4996 0010746 109.0360 251.2042 15.24271948148217
DIWATA-2B               
1 43678U 18084H   20256.14356616 -.00000318  00000-0 -25866-4 0  9991
2 43678  97.8937  14.5903 0008558 248.0386 111.9934 14.91646069101941
ES'HAIL 2               
1 43700U 18090A   20255.69984781  .00000141  00000-0  00000+0 0  9993
2 43700   0.0152 201.2126 0001838 356.3958  71.3147  1.00270407  6816
FOX-1CLIFF (AO-95)      
1 43770U 18099N   20255.64814663 -.00000195  00000-0 -12541-4 0  9994
2 43770  97.6996 325.5008 0013099 269.2491  90.7229 14.95037060 96792
ITASAT 1                
1 43786U 18099AE  20256.09414431  .00000274  00000-0  30017-4 0  9994
2 43786  97.7014 326.4202 0013616 260.3133  99.6549 14.95371917 96882
JY1SAT (JO-97)          
1 43803U 18099AX  20255.16148818  .00000288  00000-0  31143-4 0  9990
2 43803  97.6975 325.3031 0013534 264.0451  95.9227 14.95558082 96745
PSAT2 (NO-104)          
1 44354U 19036R   20255.11481194  .00007825  00000-0  11010-3 0  9990
2 44354  28.5282 177.4405 0358059 146.8086 215.5511 15.05111357 66720
BRICSAT2 (NO-103)       
1 44355U 19036S   20255.83659808  .00012188  00000-0  16238-3 0  9994
2 44355  28.5289 158.8751 0330929 177.0105 183.2550 15.11985226 66982
JAISAT-1                
1 44419U 19038F   20255.60689654  .00000545  00000-0  34561-4 0  9998
2 44419  97.5469 216.2375 0021081 189.5291 170.5543 15.12904840 65625
DUCHIFAT-3              
1 44854U 19089C   20256.21677793  .00000263  00000-0  27668-4 0  9993
2 44854  36.9674 305.5787 0008741  37.4765 322.6590 14.99122742 41327
RS-44 & BREEZE-KM R/B   
1 44909U 19096E   20255.59417916  .00000019  00000-0  31300-4 0  9998
2 44909  82.5193 298.0821 0217800  25.4092 335.7528 12.79707883 33209
ORBITAL FACTORY 2 (OF-2)
1 45113U 19071C   20255.57179681  .00001095  00000-0  44630-4 0  9996
2 45113  51.6446 307.4536 0013067  10.0672 350.0569 15.33633737 34346
HUSKYSAT-1              
1 45119U 19071J   20255.60372762  .00001004  00000-0  41662-4 0  9993
2 45119  51.6438 306.9174 0012298   6.9462 353.1689 15.33829549 34346
